NORAD_CAT_ID,OBJECT_NAME,OBJECT_TYPE,EPOCH,MEAN_MOTION,ECCENTRICITY,INCLINATION,RA_OF_ASC_NODE,ARG_OF_PERICENTER,MEAN_ANOMALY,BSTAR,MEAN_MOTION_DOT,MEAN_MOTION_DDOT,TLE_LINE0,TLE_LINE1,TLE_LINE2,SEMIMAJOR_AXIS,PERIOD,APOGEE,PERIGEE,DECAYED
52263.0,STARLINK-3786,PAYLOAD,2022-06-06 14:00:01,15.39494861,0.0001667,53.2171,151.046,42.2596,98.2693,-0.019515,-0.0071853,0.0,0 STARLINK-3786,1 52263U 22041C   22157.58334491 -.00718530  00000-0 -19515-1 0  9999,2 52263  53.2171 151.0460 0001667  42.2596  98.2693 15.39494861  1305,6825.739000000001,93.537,448.742,446.466,0.0
52263.0,STARLINK-3786,PAYLOAD,2022-06-06 22:00:00,15.38985713,0.0001806,53.2173,149.4742,40.7505,147.8988,-0.019897,-0.00720266,0.0,0 STARLINK-3786,1 52263U 22041C   22157.91667824 -.00720266  00000-0 -19897-1 0  9997,2 52263  53.2173 149.4742 0001806  40.7505 147.8988 15.38985713  8450,6827.244000000002,93.568,450.342,447.876,0.0
52263.0,STARLINK-3786,PAYLOAD,2022-06-07 14:00:01,15.37966589,0.0001444,53.2172,146.3386,53.6395,229.41,-0.02062,-0.00721691,0.0,0 STARLINK-3786,1 52263U 22041C   22158.58334491 -.00721691  00000-0 -20620-1 0  9991,2 52263  53.2172 146.3386 0001444  53.6395 229.4100 15.37966589  1306,6830.26,93.63,453.111,451.139,0.0
52263.0,STARLINK-3786,PAYLOAD,2022-06-07 22:00:00,15.37453493,0.0001486999999999,53.2174,144.7706,47.9303,281.4023,-0.020793,-0.00716101,0.0,0 STARLINK-3786,1 52263U 22041C   22158.91667824 -.00716101  00000-0 -20793-1 0  9998,2 52263  53.2174 144.7706 0001487  47.9303 281.4023 15.37453493  1305,6831.78,93.661,454.661,452.629,0.0
52263.0,STARLINK-3786,PAYLOAD,2022-06-08 06:00:02,15.36946662,0.0001773,53.2174,143.207,34.2792,340.7838,-0.021312,-0.00721559,0.0,0 STARLINK-3786,1 52263U 22041C   22159.25002315 -.00721559  00000-0 -21312-1 0  9995,2 52263  53.2174 143.2070 0001773  34.2792 340.7838 15.36946662  8654,6833.281,93.692,456.358,453.935,0.0
52263.0,STARLINK-3786,PAYLOAD,2022-06-08 14:00:01,15.36435036,0.0001426999999999,53.2173,141.6422,46.1958,13.8599,-0.021568,-0.00718401,0.0,0 STARLINK-3786,1 52263U 22041C   22159.58334491 -.00718401  00000-0 -21568-1 0  9999,2 52263  53.2173 141.6422 0001427  46.1958  13.8599 15.36435036  1303,6834.7980000000025,93.723,457.639,455.68800000000016,0.0
52263.0,STARLINK-3786,PAYLOAD,2022-06-08 22:00:01,15.3592476,0.0001725,53.2174,140.0778,38.5624,66.0009,-0.021899,-0.00717594,0.0,0 STARLINK-3786,1 52263U 22041C   22159.91668981 -.00717594  00000-0 -21899-1 0  9999,2 52263  53.2174 140.0778 0001725  38.5624  66.0009 15.35924760  1309,6836.312,93.755,459.356,456.99800000000016,0.0
52263.0,STARLINK-3786,PAYLOAD,2022-06-09 14:00:01,15.34905553,0.0001641,53.2172,136.9565,47.7457,143.8006,-0.022679,-0.00719034,0.0,0 STARLINK-3786,1 52263U 22041C   22160.58334491 -.00719034  00000-0 -22679-1 0  9998,2 52263  53.2172 136.9565 0001641  47.7457 143.8006 15.34905553  1307,6839.3380000000025,93.817,462.325,460.081,0.0
52263.0,STARLINK-3786,PAYLOAD,2022-06-09 22:00:00,15.343949900000002,0.0001663,53.2173,135.3959,48.2366,185.9149,-0.022985,-0.00717077,0.0,0 STARLINK-3786,1 52263U 22041C   22160.91667824 -.00717077  00000-0 -22985-1 0  9999,2 52263  53.2173 135.3959 0001663  48.2366 185.9149 15.34394990  8913,6840.855,93.848,463.858,461.582,0.0
52263.0,STARLINK-3786,PAYLOAD,2022-06-10 14:00:01,15.33376816,0.0001434,53.2173,132.2813,50.5585,266.9631,-0.023889,-0.00721113,0.0,0 STARLINK-3786,1 52263U 22041C   22161.58334491 -.00721113  00000-0 -23889-1 0  9994,2 52263  53.2173 132.2813 0001434  50.5585 266.9631 15.33376816  1301,6843.8830000000025,93.91,466.729,464.767,0.0
52263.0,STARLINK-3786,PAYLOAD,2022-06-10 22:00:00,15.32863463,0.0001567,53.2174,130.7247,42.8408,315.4484,-0.024045,-0.00714643,0.0,0 STARLINK-3786,1 52263U 22041C   22161.91667824 -.00714643  00000-0 -24045-1 0  9995,2 52263  53.2174 130.7247 0001567  42.8408 315.4484 15.32863463  9066,6845.411,93.942,468.349,466.203,0.0
52263.0,STARLINK-3786,PAYLOAD,2022-06-11 22:00:00,15.31334296,0.0001706999999999,53.2175,126.0644,42.0374,74.8737,-0.025278,-0.00715861,0.0,0 STARLINK-3786,1 52263U 22041C   22162.91667824 -.00715861  00000-0 -25278-1 0  9998,2 52263  53.2175 126.0644 0001707  42.0374  74.8737 15.31334296  9227,6849.967,94.036,473.002,470.663,0.0
52263.0,STARLINK-3786,PAYLOAD,2022-06-12 14:00:01,15.30316309,0.0001789,53.2173,122.9642,42.5936,150.334,-0.026231,-0.00719307,0.0,0 STARLINK-3786,1 52263U 22041C   22163.58334491 -.00719307  00000-0 -26231-1 0  9992,2 52263  53.2173 122.9642 0001789  42.5936 150.3340 15.30316309  1302,6853.005,94.098,476.096,473.644,0.0
52263.0,STARLINK-3786,PAYLOAD,2022-06-12 22:00:00,15.29804913,0.0001737,53.2174,121.4152,46.0457,183.972,-0.026528,-0.00716213,0.0,0 STARLINK-3786,1 52263U 22041C   22163.91667824 -.00716213  00000-0 -26528-1 0  9990,2 52263  53.2174 121.4152 0001737  46.0457 183.9720 15.29804913  9373,6854.531999999997,94.13,477.588,475.206,0.0
52263.0,STARLINK-3786,PAYLOAD,2022-06-13 14:00:01,15.28787049,0.0001597,53.2174,118.3219,45.4507,256.9072,-0.027565,-0.00729114,0.0,0 STARLINK-3786,1 52263U 22041C   22164.58334491 -.00729114  00000-0 -27565-1 0  9991,2 52263  53.2174 118.3219 0001597  45.4507 256.9072 15.28787049  1300,6857.574000000001,94.192,480.534,478.344,0.0
52263.0,STARLINK-3786,PAYLOAD,2022-06-13 22:00:00,15.282751,0.0001629999999999,53.2176,116.7767,42.0399,295.5697,-0.027821,-0.0072469,0.0,0 STARLINK-3786,1 52263U 22041C   22164.91667824 -.00724690  00000-0 -27821-1 0  9996,2 52263  53.2176 116.7767 0001630  42.0399 295.5697 15.28275100  9526,6859.106,94.224,482.089,479.852,0.0
52263.0,STARLINK-3786,PAYLOAD,2022-06-14 14:00:01,15.27255428,0.0001829,53.2175,113.6905,32.2735,14.0003,-0.028772,-0.00726309,0.0,0 STARLINK-3786,1 52263U 22041C   22165.58334491 -.00726309  00000-0 -28772-1 0  9996,2 52263  53.2175 113.6905 0001829  32.2735  14.0003 15.27255428  1303,6862.158,94.287,485.278,482.768,0.0
52263.0,STARLINK-3786,PAYLOAD,2022-06-14 22:00:00,15.2674458,0.0001963,53.2175,112.149,30.8988,48.7879,-0.029135,-0.0072426,0.0,0 STARLINK-3786,1 52263U 22041C   22165.91667824 -.00724260  00000-0 -29135-1 0  9990,2 52263  53.2175 112.1490 0001963  30.8988  48.7879 15.26744580  9673,6863.689,94.318,486.901,484.206,0.0
52263.0,STARLINK-3786,PAYLOAD,2022-06-15 14:00:01,15.25724481,0.0001879,53.2174,109.0699,37.625,107.0491,-0.030036,-0.00723895,0.0,0 STARLINK-3786,1 52263U 22041C   22166.58334491 -.00723895  00000-0 -30036-1 0  9990,2 52263  53.2174 109.0699 0001879  37.6250 107.0491 15.25724481  1309,6866.748000000001,94.381,489.903,487.323,0.0
52263.0,STARLINK-3786,PAYLOAD,2022-06-15 22:00:00,15.25213878,0.0002019,53.2177,107.5322,35.8937,140.3549,-0.030453,-0.00722799,0.0,0 STARLINK-3786,1 52263U 22041C   22166.91667824 -.00722799  00000-0 -30453-1 0  9991,2 52263  53.2177 107.5322 0002019  35.8937 140.3549 15.25213878  9830,6868.28,94.413,491.532,488.759,0.0
52263.0,STARLINK-3786,PAYLOAD,2022-06-16 02:00:01,15.24960839,0.0001999,53.2174,106.7648,30.3592,341.4453,-0.030822,-0.0072578,0.0,0 STARLINK-3786,1 52263U 22041C   22167.08334491 -.00725780  00000-0 -30822-1 0  9994,2 52263  53.2174 106.7648 0001999  30.3592 341.4453 15.24960839  1309,6869.04,94.429,492.278,489.532,0.0
52263.0,STARLINK-3786,PAYLOAD,2022-06-19 14:00:01,15.19603516,0.0001776,53.2174,90.6951,38.6769,84.4471,-0.035916,-0.00721707,0.0,0 STARLINK-3786,1 52263U 22041C   22170.58334491 -.00721707  00000-0 -35916-1 0  9997,2 52263  53.2174  90.6951 0001776  38.6769  84.4471 15.19603516  1301,6885.175,94.762,508.263,505.817,0.0
52263.0,STARLINK-3786,PAYLOAD,2022-06-19 22:00:00,15.19094454,0.0001991,53.2175,89.1723,35.7616,111.5825,-0.036537,-0.00723279,0.0,0 STARLINK-3786,1 52263U 22041C   22170.91667824 -.00723279  00000-0 -36537-1 0  9999,2 52263  53.2175  89.1723 0001991  35.7616 111.5825 15.19094454  1300,6886.7130000000025,94.793,509.949,507.207,0.0
52263.0,STARLINK-3786,PAYLOAD,2022-06-20 14:00:01,15.18073279,0.0001893,53.2173,86.1282,38.8927,155.0559,-0.037499,-0.00720798,0.0,0 STARLINK-3786,1 52263U 22041C   22171.58334491 -.00720798  00000-0 -37499-1 0  9995,2 52263  53.2173  86.1282 0001893  38.8927 155.0559 15.18073279  1303,6889.801,94.857,512.97,510.362,0.0
52263.0,STARLINK-3786,PAYLOAD,2022-06-20 22:00:00,15.17563542,0.0002065,53.2175,84.6092,36.1315,180.199,-0.038078,-0.00721211,0.0,0 STARLINK-3786,1 52263U 22041C   22171.91667824 -.00721211  00000-0 -38078-1 0  9996,2 52263  53.2175  84.6092 0002065  36.1315 180.1990 15.17563542 10596,6891.344,94.889,514.632,511.786,0.0
52263.0,STARLINK-3786,PAYLOAD,2022-06-21 14:00:01,15.16542822,0.0001856,53.2173,81.5719,39.2516,220.0067,-0.039132,-0.00719788,0.0,0 STARLINK-3786,1 52263U 22041C   22172.58334491 -.00719788  00000-0 -39132-1 0  9999,2 52263  53.2173  81.5719 0001856  39.2516 220.0067 15.16542822  1305,6894.436,94.953,517.58,515.021,0.0
52263.0,STARLINK-3786,PAYLOAD,2022-06-21 22:00:00,15.16033615,0.0001999,53.2174,80.0567,35.8002,244.0012,-0.039769,-0.00720847,0.0,0 STARLINK-3786,1 52263U 22041C   22172.91667824 -.00720847  00000-0 -39769-1 0  9999,2 52263  53.2174  80.0567 0001999  35.8002 244.0012 15.16033615 10740,6895.979,94.985,519.2230000000002,516.466,0.0
52263.0,STARLINK-3786,PAYLOAD,2022-06-22 14:00:01,15.1501217,0.000179,53.2173,77.0264,37.1124,281.9407,-0.040817,-0.00718712,0.0,0 STARLINK-3786,1 52263U 22041C   22173.58334491 -.00718712  00000-0 -40817-1 0  9998,2 52263  53.2173  77.0264 0001790  37.1124 281.9407 15.15012170  1300,6899.079000000002,95.049,522.179,519.7090000000002,0.0
52263.0,STARLINK-3786,PAYLOAD,2022-06-22 22:00:00,15.14504369,0.0001833,53.2173,75.5148,37.5838,300.1734,-0.041605,-0.00721867,0.0,0 STARLINK-3786,1 52263U 22041C   22173.91667824 -.00721867  00000-0 -41605-1 0  9995,2 52263  53.2173  75.5148 0001833  37.5838 300.1734 15.14504369 10894,6900.621,95.081,523.751,521.221,0.0
